TWILIGHT AG             
1 67393U 26004AG  26037.59190502  .00024285  00000+0  11931-2 0  9996
2 67393  97.4567  38.5821 0007244  81.8928 278.3128 15.18024878  3949
TWILIGHT AH             
1 67394U 26004AH  26037.78150962  .00008852  00000+0  43455-3 0  9993
2 67394  97.4474  38.7382 0010818  75.0339 285.2092 15.18265304  3974
TWILIGHT AJ             
1 67395U 26004AJ  26037.84349919  .00002588  00000+0  28924-3 0  9997
2 67395  97.8015  38.5731 0005016 181.9643 178.1555 14.87804692  3894
TWILIGHT AK             
1 67396U 26004AK  26037.78861458  .00006725  00000+0  33513-3 0  9995
2 67396  97.4512  38.7419 0008862  74.7204 285.5009 15.17846907  3977
CARBSAR                 
1 67397U 26004AL  26037.79074101  .00013394  00000+0  66349-3 0  9991
2 67397  97.4533  38.7469 0007955  78.9116 281.3012 15.17861953  3972
TWILIGHT AM             
1 67398U 26004AM  26037.78735765  .00012003  00000+0  59309-3 0  9995
2 67398  97.4568  38.7636 0008850  83.6137 276.6104 15.17969446  3973
TWILIGHT AN             
1 67399U 26004AN  26037.85059313  .00012289  00000+0  60431-3 0  9996
2 67399  97.4556  38.8283 0009579  82.5741 277.6581 15.18126447  3986
CONNECTA IOT-13         
1 67400U 26004AP  26037.77970733  .00004015  00000+0  19926-3 0  9999
2 67400  97.4555  38.7691 0011186  82.6678 277.5827 15.18216245  3974
CONNECTA IOT-14         
1 67401U 26004AQ  26037.57994963  .00016031  00000+0  77784-3 0  9996
2 67401  97.4503  38.5575 0011272  79.5850 280.6654 15.18515512  3949
CONNECTA IOT-15         
1 67402U 26004AR  26037.80518301  .00004276  00000+0  22110-3 0  9992
2 67402  97.4558  38.7372 0004271  82.1176 278.0541 15.16785414  3965
SHIJIAN-29B (SJ-29B)    
1 67403U 25315C   26037.77393385 -.00000066  00000+0  00000+0 0  9990
2 67403   3.0676  98.5224 0002353 312.5942  77.4966  1.00272206   383
STARLINK-36484          
1 67404U 26005A   26037.83335647  .00045308  00000+0  10859-2 0  9995
2 67404  43.0010  55.0531 0001562 268.7701 141.2369 15.40686238  5177
STARLINK-36452          
1 67405U 26005B   26037.47971864  .00131252  00000+0  22014-2 0  9993
2 67405  43.0004  56.8141 0001767 268.4502  91.6156 15.50635221  3896
STARLINK-36409          
1 67406U 26005C   26037.83335647  .00048650  00000+0  11662-2 0  9993
2 67406  43.0003  54.8402 0001483 275.3063 221.8564 15.40654154  5222
STARLINK-36510          
1 67407U 26005D   26037.47904566  .00138313  00000+0  23218-2 0  9992
2 67407  42.9998  56.8081 0001349 262.0253  98.0454 15.50581871  3893
STARLINK-36509          
1 67408U 26005E   26037.83335647 -.02065806  00000+0 -46148-1 0  9997
2 67408  43.0001  54.7499 0001066 271.5078 263.1589 15.46238744  5223
STARLINK-36507          
1 67409U 26005F   26037.47835660  .00088953  00000+0  15046-2 0  9996
2 67409  42.9998  56.8027 0001366 272.2364  87.8340 15.50583937  3895
STARLINK-36508          
1 67410U 26005G   26037.83335647  .00041344  00000+0  99243-3 0  9993
2 67410  43.0007  54.9605 0001501 252.8948 194.4615 15.40675348  5220
STARLINK-36503          
1 67411U 26005H   26037.47767133  .00053513  00000+0  91208-3 0  9997
2 67411  43.0001  56.7970 0001419 267.5263  92.5434 15.50569256  3890
STARLINK-36446          
1 67412U 26005J   26036.18911721 -.00242506  00000+0 -43537-2 0  9994
2 67412  42.9999  64.3297 0000465 298.0126  62.0687 15.49952014  3695
STARLINK-36442          
1 67413U 26005K   26037.47705112 -.00215619  00000+0 -38327-2 0  9999
2 67413  42.9995  56.7906 0001428 304.3441  55.7284 15.50127677  3890
STARLINK-36506          
1 67414U 26005L   26037.41222504  .00076288  00000+0  12936-2 0  9996
2 67414  43.0011  57.1661 0001788 272.3621  87.7034 15.50578640  3885
STARLINK-36468          
1 67415U 26005M   26037.54071355  .00086661  00000+0  14660-2 0  9999
2 67415  43.0000  56.4092 0001527 263.9257  96.1429 15.50592500  3902
STARLINK-36487          
1 67416U 26005N   26037.83335647  .00044122  00000+0  10585-2 0  9997
2 67416  43.0005  54.8986 0001394 261.9737 210.2818 15.40667144  5229
STARLINK-36374          
1 67417U 26005P   26037.47560894  .00062418  00000+0  10603-2 0  9991
2 67417  42.9996  56.7795 0001337 272.9449  87.1258 15.50607058  3894
STARLINK-36455          
1 67418U 26005Q   26037.53968286  .00127711  00000+0  21473-2 0  9991
2 67418  42.9994  56.4005 0001774 254.3271 105.7393 15.50579800  3908
STARLINK-36424          
1 67419U 26005R   26036.50868968  .00121663  00000+0  20442-2 0  9999
2 67419  42.9997  62.4237 0001334 252.7307 107.3407 15.50625233  3748
STARLINK-35564          
1 67420U 26005S   26037.53899899  .00083452  00000+0  14129-2 0  9990
2 67420  42.9997  56.3951 0001412 267.7089  92.3610 15.50584629  3905
STARLINK-36431          
1 67421U 26005T   26037.83335647 -.00095932  00000+0 -23165-2 0  9998
2 67421  43.0007  54.9280 0001105 251.9354 207.9352 15.40723102  5020
STARLINK-36418          
1 67422U 26005U   26037.83335647 -.02079093  00000+0 -44362-1 0  9992
2 67422  43.0005  54.6721 0000845 276.8698 288.5367 15.47574784  5177
STARLINK-36465          
1 67423U 26005V   26037.83335647  .00052492  00000+0  12558-2 0  9996
2 67423  43.0005  54.8688 0001246 295.0910 189.5649 15.40685835  4960
STARLINK-36362          
1 67424U 26005W   26037.83335647  .00047741  00000+0  11439-2 0  9995
2 67424  43.0002  54.8077 0000847 271.6640 237.9067 15.40674821  5221
STARLINK-36447          
1 67425U 26005X   26037.83335647  .00039727  00000+0  95465-3 0  9993
2 67425  43.0000  54.7454 0001013 280.6859 253.8008 15.40658767  5229
STARLINK-36146          
1 67426U 26005Y   26037.40811104  .00068707  00000+0  11673-2 0  9992
2 67426  43.0002  57.1307 0001420 263.9674  96.1024 15.50564728  3876
STARLINK-36459          
1 67427U 26005Z   26037.53659788  .00082271  00000+0  13931-2 0  9996
2 67427  42.9996  56.3750 0001467 262.2726  97.7967 15.50585661  3895
STARLINK-36464          
1 67428U 26005AA  26037.53591120  .00087880  00000+0  14866-2 0  9991
2 67428  42.9997  56.3697 0001555 257.3807 102.6879 15.50586678  3897
STARLINK-36513          
1 67429U 26005AB  26037.53557013  .00092032  00000+0  15558-2 0  9999
2 67429  42.9998  56.3660 0000938 261.5684  98.5070 15.50586663  3893
STARLINK-36515          
1 67430U 26005AC  26037.53625539  .00086355  00000+0  14614-2 0  9993
2 67430  42.9998  56.3722 0001510 262.0623  98.0066 15.50582714  3893
STARLINK-36443          
1 67431U 26005AD  26037.47081026  .00094766  00000+0  16011-2 0  9992
2 67431  43.0004  56.7384 0001405 276.4311  83.6389 15.50589941  3895
STARLINK-36460          
1 67432U 26005AE  26037.53488248  .00083994  00000+0  14219-2 0  9996
2 67432  42.9999  56.3601 0001531 254.2963 105.7728 15.50585473  3891
YAOGAN-50 01            
1 67433U 26006A   26037.58025914  .00000382  00000+0  17514-3 0  9992
2 67433 142.0319 304.6109 0000733 264.3893  95.6743 13.83241433  3342
CZ-6A R/B               
1 67434U 26006B   26037.27694874  .00002009  00000+0  24367-3 0  9998
2 67434 142.0436 317.8823 0203581 255.4720 102.3356 14.62307036  3478
HULIANWANG DIGUI-137    
1 67435U 26007A   26036.88064203  .00000017  00000+0  15997-3 0  9999
2 67435  50.0142 202.3826 0000579  45.0466 315.0474 13.76593365  3238
HULIANWANG DIGUI-138    
1 67436U 26007B   26036.88607189  .00000012  00000+0  15663-3 0  9991
2 67436  50.0095 202.4131 0000983  37.3200 322.7760 13.76232388  3233
HULIANWANG DIGUI-139    
1 67437U 26007C   26037.39141237  .00000048  00000+0  19328-3 0  9997
2 67437  50.0002 200.4092 0000256  48.4286 311.6628 13.76139378  3309
HULIANWANG DIGUI-140    
1 67438U 26007D   26036.74390981  .00000037  00000+0  18195-3 0  9997
2 67438  49.9963 202.9792 0002852 211.2197 148.8526 13.76236204  3215
HULIANWANG DIGUI-141    
1 67439U 26007E   26036.73200082  .00000018  00000+0  16055-3 0  9991
2 67439  49.9987 202.9119 0001299 218.1167 141.9634 13.76973880  3214
HULIANWANG DIGUI-142    
1 67440U 26007F   26037.60002707 -.00000138  00000+0  31531-5 0  9996
2 67440  50.0084 199.5636 0002602 349.6156  10.4682 13.76211146  3335
HULIANWANG DIGUI-143    
1 67441U 26007G   26036.72575335  .00000017  00000+0  15813-3 0  9999
2 67441  50.0043 202.9091 0001968 333.4501  26.6291 13.77546602  3215
HULIANWANG DIGUI-144    
1 67442U 26007H   26037.52110464  .00000002  00000+0  14511-3 0  9995
2 67442  50.0079 199.7850 0002686 339.9783  20.1004 13.76725530  3323
HULIANWANG DIGUI-145    
1 67443U 26007J   26037.00955406  .00000023  00000+0  16497-3 0  9990
2 67443  50.0082 201.7399 0000113 336.5379  23.5508 13.77241786  3252
CZ-8A R/B               
1 67444U 26007K   26037.65421358 -.00000050  00000+0  53212-4 0  9994
2 67444  50.0085 195.1119 0092215 165.4012 194.9592 14.13551628  3390
STARLINK-36542          
1 67445U 26008A   26037.83335647 -.02167672  00000+0 -38677-1 0  9993
2 67445  43.0004  21.2714 0001120 264.1523  60.6086 15.52710251  4833
STARLINK-36539          
1 67446U 26008B   26037.83335647 -.02043563  00000+0 -33839-1 0  9991
2 67446  43.0004  21.1866 0001421 257.7359 101.7406 15.54536088  4839
STARLINK-36440          
1 67447U 26008C   26035.39396356 -.00618888  00000+0 -44540-2 0  9993
2 67447  42.9995  35.5635 0000730 302.0276  58.0522 15.74395349  4450
STARLINK-36423          
1 67448U 26008D   26037.83335647  .00116368  00000+0  19669-2 0  9999
2 67448  43.0002  21.3821 0001754 248.6939  30.8370 15.50480631  4834
STARLINK-36519          
1 67449U 26008E   26037.83335647 -.02009955  00000+0 -27408-1 0  9996
2 67449  43.0004  20.9737 0001047 265.1860 179.8596 15.60169740  4830
STARLINK-36525          
1 67450U 26008F   26037.83335647 -.02022504  00000+0 -36141-1 0  9997
2 67450  42.9999  21.2555 0001432 260.2027  70.4183 15.52429054  4830
STARLINK-36511          
1 67451U 26008G   26037.83335647 -.00012550  00000+0 -20860-3 0  9999
2 67451  43.0003  21.3550 0001362 265.8682  24.5752 15.50557023  4833
